[{"OBJECT_NAME":"QIANFAN-19","OBJECT_ID":"2024-185A","EPOCH":"2026-03-09T23:01:49.129824","MEAN_MOTION":14.14392209,"ECCENTRICITY":0.00082129,"INCLINATION":88.9763,"RA_OF_ASC_NODE":67.9253,"ARG_OF_PERICENTER":39.7684,"MEAN_ANOMALY":320.4104,"EPHEMERIS_TYPE":0,"CLASSIFICATION_TYPE":"U","NORAD_CAT_ID":61552,"ELEMENT_SET_NO":999,"REV_AT_EPOCH":8199,"BSTAR":0.00030187594,"MEAN_MOTION_DOT":5.92e-6,"MEAN_MOTION_DDOT":0},{"OBJECT_NAME":"METEOR 1-19","OBJECT_ID":"1974-083A","EPOCH":"2026-03-09T23:04:36.942816","MEAN_MOTION":14.10556122,"ECCENTRICITY":0.00305665,"INCLINATION":81.1863,"RA_OF_ASC_NODE":235.1238,"ARG_OF_PERICENTER":3.7886,"MEAN_ANOMALY":356.351,"EPHEMERIS_TYPE":0,"CLASSIFICATION_TYPE":"U","NORAD_CAT_ID":7490,"ELEMENT_SET_NO":999,"REV_AT_EPOCH":64089,"BSTAR":5.040932e-6,"MEAN_MOTION_DOT":2.1e-7,"MEAN_MOTION_DDOT":0}]
